ONEWEB-0593             
1 54659U 22166T   23260.52501294 -.00000212  00000+0 -54584-3 0  9992
2 54659  87.9170  83.8083 0001443  92.6879 267.4420 13.21825716 38952
ONEWEB-0594             
1 54660U 22166U   23261.07382412  .00000088  00000+0  18236-3 0  9997
2 54660  87.9170  83.6968 0001885  91.6189 268.5161 13.21827228 39503
ONEWEB-0595             
1 54661U 22166V   23261.05069293  .00000400  00000+0  93786-3 0  9996
2 54661  87.9163  83.6946 0001865  85.1060 275.0287 13.21827150 39489
ONEWEB-0596             
1 54662U 22166W   23260.57129014 -.00000016  00000+0 -70233-4 0  9999
2 54662  87.9169  83.7915 0001253  84.9129 275.2148 13.21828609 38956
ONEWEB-0597             
1 54663U 22166X   23260.77945140  .00000090  00000+0  18693-3 0  9999
2 54663  87.9172  83.7508 0001461 100.8068 259.3230 13.21826675 39452
ONEWEB-0600             
1 54664U 22166Y   23260.53344132  .00000187  00000+0  42195-3 0  9999
2 54664  87.9171  83.8485 0001626  97.0183 263.1136 13.21826393 38921
ONEWEB-0601             
1 54665U 22166Z   23260.52608549  .00000076  00000+0  15279-3 0  9994
2 54665  87.9170  83.8004 0001245  83.1203 277.0073 13.21827845 39113
ONEWEB-0602             
1 54666U 22166AA  23261.02336265  .00000018  00000+0  12518-4 0  9994
2 54666  87.9172  83.7089 0001461  93.6082 266.5219 13.21824872 39492
